CCSDS_OMM_VERS = 2.0
CREATION_DATE  = 
ORIGINATOR     = 

OBJECT_NAME    = SL-14 R/B
OBJECT_ID      = 1987-055B
CENTER_NAME    = EARTH
REF_FRAME      = TEME
TIME_SYSTEM    = UTC
MEAN_ELEMENT_THEORY = SGP/SGP4

EPOCH          = 2025-12-01T19:25:50.760192
MEAN_MOTION    = 14.85501906
ECCENTRICITY   = .0020143
INCLINATION    = 82.4999
RA_OF_ASC_NODE = 81.2884
ARG_OF_PERICENTER = 341.1834
MEAN_ANOMALY   = 18.8635

EPHEMERIS_TYPE = 0
CLASSIFICATION_TYPE = U
NORAD_CAT_ID   = 18153
ELEMENT_SET_NO = 999
REV_AT_EPOCH   = 5540
BSTAR          = .65873E-4
MEAN_MOTION_DOT = .594E-5
MEAN_MOTION_DDOT = 0

CCSDS_OMM_VERS = 2.0
CREATION_DATE  = 
ORIGINATOR     = 

OBJECT_NAME    = COSMOS 1867
OBJECT_ID      = 1987-060A
CENTER_NAME    = EARTH
REF_FRAME      = TEME
TIME_SYSTEM    = UTC
MEAN_ELEMENT_THEORY = SGP/SGP4

EPOCH          = 2025-12-01T20:15:25.867296
MEAN_MOTION    = 14.31483275
ECCENTRICITY   = .0013634
INCLINATION    = 65.0099
RA_OF_ASC_NODE = 220.7146
ARG_OF_PERICENTER = 270.0339
MEAN_ANOMALY   = 89.9183

EPHEMERIS_TYPE = 0
CLASSIFICATION_TYPE = U
NORAD_CAT_ID   = 18187
ELEMENT_SET_NO = 999
REV_AT_EPOCH   = 593
BSTAR          = .25629E-4
MEAN_MOTION_DOT = -.32E-6
MEAN_MOTION_DDOT = 0

CCSDS_OMM_VERS = 2.0
CREATION_DATE  = 
ORIGINATOR     = 

OBJECT_NAME    = COSMOS 1892
OBJECT_ID      = 1987-088A
CENTER_NAME    = EARTH
REF_FRAME      = TEME
TIME_SYSTEM    = UTC
MEAN_ELEMENT_THEORY = SGP/SGP4

EPOCH          = 2025-12-01T22:59:15.475200
MEAN_MOTION    = 16.35834046
ECCENTRICITY   = .000682
INCLINATION    = 82.4559
RA_OF_ASC_NODE = 55.6045
ARG_OF_PERICENTER = 269.6843
MEAN_ANOMALY   = 90.3672

EPHEMERIS_TYPE = 0
CLASSIFICATION_TYPE = U
NORAD_CAT_ID   = 18421
ELEMENT_SET_NO = 999
REV_AT_EPOCH   = 8960
BSTAR          = .53124E-3
MEAN_MOTION_DOT = .4125319E-1
MEAN_MOTION_DDOT = -.12437E-5

CCSDS_OMM_VERS = 2.0
CREATION_DATE  = 
ORIGINATOR     = 

OBJECT_NAME    = SL-14 R/B
OBJECT_ID      = 1988-001B
CENTER_NAME    = EARTH
REF_FRAME      = TEME
TIME_SYSTEM    = UTC
MEAN_ELEMENT_THEORY = SGP/SGP4

EPOCH          = 2025-12-01T14:18:44.926848
MEAN_MOTION    = 14.85404002
ECCENTRICITY   = .0017474
INCLINATION    = 82.5122
RA_OF_ASC_NODE = 287.6288
ARG_OF_PERICENTER = 197.9895
MEAN_ANOMALY   = 162.0705

EPHEMERIS_TYPE = 0
CLASSIFICATION_TYPE = U
NORAD_CAT_ID   = 18749
ELEMENT_SET_NO = 999
REV_AT_EPOCH   = 2746
BSTAR          = .69105E-4
MEAN_MOTION_DOT = .62E-5
MEAN_MOTION_DDOT = 0

CCSDS_OMM_VERS = 2.0
CREATION_DATE  = 
ORIGINATOR     = 

OBJECT_NAME    = COSMOS 1933
OBJECT_ID      = 1988-020A
CENTER_NAME    = EARTH
REF_FRAME      = TEME
TIME_SYSTEM    = UTC
MEAN_ELEMENT_THEORY = SGP/SGP4

EPOCH          = 2025-12-01T12:57:09.774144
MEAN_MOTION    = 15.16962835
ECCENTRICITY   = .0004749
INCLINATION    = 82.5132
RA_OF_ASC_NODE = 347.9455
ARG_OF_PERICENTER = 158.1105
MEAN_ANOMALY   = 202.0332

EPHEMERIS_TYPE = 0
CLASSIFICATION_TYPE = U
NORAD_CAT_ID   = 18958
ELEMENT_SET_NO = 999
REV_AT_EPOCH   = 3534
BSTAR          = .20012E-3
MEAN_MOTION_DOT = .3979E-4
MEAN_MOTION_DDOT = 0

CCSDS_OMM_VERS = 2.0
CREATION_DATE  = 
ORIGINATOR     = 

OBJECT_NAME    = SL-3 R/B
OBJECT_ID      = 1988-032B
CENTER_NAME    = EARTH
REF_FRAME      = TEME
TIME_SYSTEM    = UTC
MEAN_ELEMENT_THEORY = SGP/SGP4

EPOCH          = 2025-12-01T20:35:24.745056
MEAN_MOTION    = 15.18565325
ECCENTRICITY   = .0025552
INCLINATION    = 97.5065
RA_OF_ASC_NODE = 314.6562
ARG_OF_PERICENTER = 211.5858
MEAN_ANOMALY   = 148.3844

EPHEMERIS_TYPE = 0
CLASSIFICATION_TYPE = U
NORAD_CAT_ID   = 19046
ELEMENT_SET_NO = 999
REV_AT_EPOCH   = 3725
BSTAR          = .26088E-3
MEAN_MOTION_DOT = .5366E-4
MEAN_MOTION_DDOT = 0

CCSDS_OMM_VERS = 2.0
CREATION_DATE  = 
ORIGINATOR     = 

OBJECT_NAME    = SL-16 R/B
OBJECT_ID      = 1988-039B
CENTER_NAME    = EARTH
REF_FRAME      = TEME
TIME_SYSTEM    = UTC
MEAN_ELEMENT_THEORY = SGP/SGP4

EPOCH          = 2025-12-01T19:48:08.271072
MEAN_MOTION    = 14.19593141
ECCENTRICITY   = .0020109
INCLINATION    = 71.0146
RA_OF_ASC_NODE = 275.4755
ARG_OF_PERICENTER = 134.6524
MEAN_ANOMALY   = 225.6245

EPHEMERIS_TYPE = 0
CLASSIFICATION_TYPE = U
NORAD_CAT_ID   = 19120
ELEMENT_SET_NO = 999
REV_AT_EPOCH   = 94449
BSTAR          = .94888E-5
MEAN_MOTION_DOT = -.28E-6
MEAN_MOTION_DDOT = 0

CCSDS_OMM_VERS = 2.0
CREATION_DATE  = 
ORIGINATOR     = 

OBJECT_NAME    = COSMOS 1953
OBJECT_ID      = 1988-050A
CENTER_NAME    = EARTH
REF_FRAME      = TEME
TIME_SYSTEM    = UTC
MEAN_ELEMENT_THEORY = SGP/SGP4

EPOCH          = 2025-12-01T19:48:22.540896
MEAN_MOTION    = 15.26732959
ECCENTRICITY   = .0013743
INCLINATION    = 82.5092
RA_OF_ASC_NODE = 256.5302
ARG_OF_PERICENTER = 104.4793
MEAN_ANOMALY   = 255.7971

EPHEMERIS_TYPE = 0
CLASSIFICATION_TYPE = U
NORAD_CAT_ID   = 19210
ELEMENT_SET_NO = 999
REV_AT_EPOCH   = 2284
BSTAR          = .23795E-3
MEAN_MOTION_DOT = .6302E-4
MEAN_MOTION_DDOT = 0

CCSDS_OMM_VERS = 2.0
CREATION_DATE  = 
ORIGINATOR     = 

OBJECT_NAME    = SL-8 R/B
OBJECT_ID      = 1988-053B
CENTER_NAME    = EARTH
REF_FRAME      = TEME
TIME_SYSTEM    = UTC
MEAN_ELEMENT_THEORY = SGP/SGP4

EPOCH          = 2025-12-01T15:29:59.234208
MEAN_MOTION    = 14.38847726
ECCENTRICITY   = .001928
INCLINATION    = 74.0473
RA_OF_ASC_NODE = 293.1659
ARG_OF_PERICENTER = 141.2763
MEAN_ANOMALY   = 31.1588

EPHEMERIS_TYPE = 0
CLASSIFICATION_TYPE = U
NORAD_CAT_ID   = 19257
ELEMENT_SET_NO = 999
REV_AT_EPOCH   = 96249
BSTAR          = .95122E-4
MEAN_MOTION_DOT = .267E-5
MEAN_MOTION_DDOT = 0

CCSDS_OMM_VERS = 2.0
CREATION_DATE  = 
ORIGINATOR     = 

OBJECT_NAME    = COSMOS 1975
OBJECT_ID      = 1988-093A
CENTER_NAME    = EARTH
REF_FRAME      = TEME
TIME_SYSTEM    = UTC
MEAN_ELEMENT_THEORY = SGP/SGP4

EPOCH          = 2025-12-01T18:24:42.875424
MEAN_MOTION    = 15.26214458
ECCENTRICITY   = .0012079
INCLINATION    = 82.5215
RA_OF_ASC_NODE = 215.8098
ARG_OF_PERICENTER = 146.9843
MEAN_ANOMALY   = 213.2152

EPHEMERIS_TYPE = 0
CLASSIFICATION_TYPE = U
NORAD_CAT_ID   = 19573
ELEMENT_SET_NO = 999
REV_AT_EPOCH   = 446
BSTAR          = .33708E-3
MEAN_MOTION_DOT = .8772E-4
MEAN_MOTION_DDOT = 0

CCSDS_OMM_VERS = 2.0
CREATION_DATE  = 
ORIGINATOR     = 

OBJECT_NAME    = SL-14 R/B
OBJECT_ID      = 1988-093B
CENTER_NAME    = EARTH
REF_FRAME      = TEME
TIME_SYSTEM    = UTC
MEAN_ELEMENT_THEORY = SGP/SGP4

EPOCH          = 2025-12-01T17:15:27.508896
MEAN_MOTION    = 14.85529310
ECCENTRICITY   = .0020881
INCLINATION    = 82.5296
RA_OF_ASC_NODE = 134.0094
ARG_OF_PERICENTER = 6.4852
MEAN_ANOMALY   = 4.0918

EPHEMERIS_TYPE = 0
CLASSIFICATION_TYPE = U
NORAD_CAT_ID   = 19574
ELEMENT_SET_NO = 999
REV_AT_EPOCH   = 98649
BSTAR          = .66518E-4
MEAN_MOTION_DOT = .601E-5
MEAN_MOTION_DDOT = 0

CCSDS_OMM_VERS = 2.0
CREATION_DATE  = 
ORIGINATOR     = 

OBJECT_NAME    = SL-16 R/B
OBJECT_ID      = 1988-102B
CENTER_NAME    = EARTH
REF_FRAME      = TEME
TIME_SYSTEM    = UTC
MEAN_ELEMENT_THEORY = SGP/SGP4

EPOCH          = 2025-12-01T19:01:06.930048
MEAN_MOTION    = 14.16137407
ECCENTRICITY   = .0013512
INCLINATION    = 71.0005
RA_OF_ASC_NODE = 357.4781
ARG_OF_PERICENTER = 169.9081
MEAN_ANOMALY   = 190.2316

EPHEMERIS_TYPE = 0
CLASSIFICATION_TYPE = U
NORAD_CAT_ID   = 19650
ELEMENT_SET_NO = 999
REV_AT_EPOCH   = 91303
BSTAR          = -.19471E-5
MEAN_MOTION_DOT = -.52E-6
MEAN_MOTION_DDOT = 0

CCSDS_OMM_VERS = 2.0
CREATION_DATE  = 
ORIGINATOR     = 

OBJECT_NAME    = INTERCOSMOS 24
OBJECT_ID      = 1989-080A
CENTER_NAME    = EARTH
REF_FRAME      = TEME
TIME_SYSTEM    = UTC
MEAN_ELEMENT_THEORY = SGP/SGP4

EPOCH          = 2025-12-01T18:43:22.435392
MEAN_MOTION    = 12.59407579
ECCENTRICITY   = .1188696
INCLINATION    = 82.6044
RA_OF_ASC_NODE = 168.0788
ARG_OF_PERICENTER = 159.9360
MEAN_ANOMALY   = 205.2896

EPHEMERIS_TYPE = 0
CLASSIFICATION_TYPE = U
NORAD_CAT_ID   = 20261
ELEMENT_SET_NO = 999
REV_AT_EPOCH   = 65447
BSTAR          = .24459E-3
MEAN_MOTION_DOT = .851E-5
MEAN_MOTION_DDOT = 0

CCSDS_OMM_VERS = 2.0
CREATION_DATE  = 
ORIGINATOR     = 

OBJECT_NAME    = SL-14 R/B
OBJECT_ID      = 1989-080C
CENTER_NAME    = EARTH
REF_FRAME      = TEME
TIME_SYSTEM    = UTC
MEAN_ELEMENT_THEORY = SGP/SGP4

EPOCH          = 2025-12-01T18:48:04.891680
MEAN_MOTION    = 12.50399041
ECCENTRICITY   = .1230828
INCLINATION    = 82.5938
RA_OF_ASC_NODE = 236.0522
ARG_OF_PERICENTER = 48.6228
MEAN_ANOMALY   = 321.4298

EPHEMERIS_TYPE = 0
CLASSIFICATION_TYPE = U
NORAD_CAT_ID   = 20262
ELEMENT_SET_NO = 999
REV_AT_EPOCH   = 64791
BSTAR          = .14031E-3
MEAN_MOTION_DOT = .49E-5
MEAN_MOTION_DDOT = 0

CCSDS_OMM_VERS = 2.0
CREATION_DATE  = 
ORIGINATOR     = 

OBJECT_NAME    = DELTA 1 R/B
OBJECT_ID      = 1989-089B
CENTER_NAME    = EARTH
REF_FRAME      = TEME
TIME_SYSTEM    = UTC
MEAN_ELEMENT_THEORY = SGP/SGP4

EPOCH          = 2025-12-01T14:28:14.316672
MEAN_MOTION    = 14.50557340
ECCENTRICITY   = .0070635
INCLINATION    = 97.0760
RA_OF_ASC_NODE = 193.6050
ARG_OF_PERICENTER = 72.8557
MEAN_ANOMALY   = 288.0360

EPHEMERIS_TYPE = 0
CLASSIFICATION_TYPE = U
NORAD_CAT_ID   = 20323
ELEMENT_SET_NO = 999
REV_AT_EPOCH   = 88151
BSTAR          = .109E-3
MEAN_MOTION_DOT = .406E-5
MEAN_MOTION_DDOT = 0

